SL-16 R/B               
1 25400U 98043G   26062.83787562  .00000085  00000+0  54581-4 0  9996
2 25400  98.8245  16.1602 0010484  36.4826 323.7065 14.26048201438156
SL-16 R/B               
1 25407U 98045B   26062.78126201 -.00000206  00000+0 -80139-4 0  9991
2 25407  71.0112 193.9979 0006394  17.0539 343.0798 14.16189420426266
ISS (ZARYA)             
1 25544U 98067A   26063.15679535  .00010207  00000+0  19684-3 0  9998
2 25544  51.6316  99.7104 0008201 155.0339 205.1047 15.48434477555473
CZ-4B R/B               
1 25732U 99025C   26063.09064314  .00000084  00000+0  61276-4 0  9995
2 25732  98.6638 107.5046 0037062   2.7704  50.8330 14.18264047387376
OKEAN-O                 
1 25860U 99039A   26063.10929831  .00000960  00000+0  13276-3 0  9997
2 25860  97.9453 123.0572 0001430  70.8180 289.3186 14.80325385433569
SL-16 R/B               
1 25861U 99039B   26063.16195113  .00000848  00000+0  11439-3 0  9996
2 25861  97.9977 122.2666 0013446 275.9477  84.0203 14.81723034436043
DELTA 2 R/B             
1 25876U 99041E   26063.13230769  .00001895  00000+0  34235-3 0  9991
2 25876  51.7645 323.4770 0502347 332.0291  25.4449 14.11818994362246
HELIOS 1B               
1 25977U 99064A   26063.13131923  .00003050  00000+0  34136-3 0  9995
2 25977  98.1702 325.2112 0002519  82.6134 277.5367 14.87671331684439
TERRA                   
1 25994U 99068A   26063.16861737  .00000655  00000+0  14267-3 0  9995
2 25994  97.9604 116.8140 0002341 164.7813 260.5333 14.61008222394270
SL-16 R/B               
1 26070U 00006B   26063.14841213  .00000205  00000+0  12843-3 0  9999
2 26070  71.0013 109.4896 0017172 197.8700 162.1821 14.15824790347776
TITAN 4B R/B            
1 26474U 00047B   26063.13076288  .00005936  00000+0  37138-3 0  9993
2 26474  67.9885  56.1406 0038033  41.9680 318.4372 15.09497271392079
ENVISAT                 
1 27386U 02009A   26062.83543984  .00000174  00000+0  70207-4 0  9998
2 27386  98.3719  16.5725 0001332  84.6244 308.1164 14.39034374258330
